name,code,address,description,phone,web_site,country
CompanyA,CodeA,Av fake street 123,Description ForA,6015345450,ww.companyA.com,usa
CompanyB,CodeB,Av fake street 123,Description ForB,6015345450,ww.companyB.com,usa
CompanyC,CodeC,Av fake street 123,Description ForC,6015345450,ww.companyC.com,usa
CompanyD,CodeD,Av fake street 123,Description ForD,6015345451,ww.companyD.com,usa
CompanyE,CodeE,Av fake street 123,Description ForE,6015345452,ww.companyA.com,col
CompanyF,CodeF,Av fake street 123,Description ForF,6015345453,ww.companyB.com,mex
CompanyG,CodeG,Av fake street 123,Description ForG,6015345454,ww.companyC.com,can
CompanyH,CodeH,Av fake street 123,Description ForH,6015345455,ww.companyD.com,usa
CompanyI,CodeI,Av fake street 123,Description ForI,6015345456,ww.companyA.com,usa
CompanyJ,CodeJ,Av fake street 123,Description ForJ,6015345457,ww.companyB.com,usa
CompanyK,CodeK,Av fake street 123,Description ForK,6015345458,ww.companyC.com,usa
CompanyL,CodeL,Av fake street 123,Description ForL,6015345459,ww.companyD.com,col
CompanyM,CodeM,Av fake street 123,Description ForM,6015345460,ww.companyA.com,mex
CompanyN,CodeN,Av fake street 123,Description ForN,6015345461,ww.companyB.com,can
CompanyO,CodeO,Av fake street 123,Description ForO,6015345462,ww.companyC.com,usa
CompanyP,CodeP,Av fake street 123,Description ForP,6015345463,ww.companyD.com,usa
CompanyQ,CodeQ,Av fake street 123,Description ForQ,6015345464,ww.companyA.com,usa
CompanyR,CodeR,Av fake street 123,Description ForR,6015345465,ww.companyB.com,usa
CompanyS,CodeS,Av fake street 123,Description ForS,6015345466,ww.companyC.com,col
CompanyT,CodeT,Av fake street 123,Description ForT,6015345467,ww.companyD.com,mex
CompanyU,CodeU,Av fake street 123,Description ForU,6015345468,ww.companyA.com,can
CompanyV,CodeV,Av fake street 123,Description ForV,6015345469,ww.companyB.com,usa
CompanyW,CodeW,Av fake street 123,Description ForW,6015345470,ww.companyC.com,usa
CompanyX,CodeX,Av fake street 123,Description ForX,6015345471,ww.companyD.com,usa
CompanyY,CodeY,Av fake street 123,Description ForY,6015345472,ww.companyA.com,usa
CompanyZ,CodeZ,Av fake street 123,Description ForZ,6015345473,ww.companyB.com,col
CompanyA,CodeA,Av fake street 123,Description ForA,6015345450,ww.companyA.com,usa
CompanyB,CodeB,Av fake street 123,Description ForB,6015345450,ww.companyB.com,usa
CompanyC,CodeC,Av fake street 123,Description ForC,6015345450,ww.companyC.com,usa
CompanyD,CodeD,Av fake street 123,Description ForD,6015345451,ww.companyD.com,usa
CompanyE,CodeE,Av fake street 123,Description ForE,6015345452,ww.companyA.com,col
CompanyF,CodeF,Av fake street 123,Description ForF,6015345453,ww.companyB.com,mex
CompanyG,CodeG,Av fake street 123,Description ForG,6015345454,ww.companyC.com,can
CompanyH,CodeH,Av fake street 123,Description ForH,6015345455,ww.companyD.com,usa
CompanyI,CodeI,Av fake street 123,Description ForI,6015345456,ww.companyA.com,usa
CompanyJ,CodeJ,Av fake street 123,Description ForJ,6015345457,ww.companyB.com,usa
CompanyK,CodeK,Av fake street 123,Description ForK,6015345458,ww.companyC.com,usa
CompanyL,CodeL,Av fake street 123,Description ForL,6015345459,ww.companyD.com,col
CompanyM,CodeM,Av fake street 123,Description ForM,6015345460,ww.companyA.com,mex
CompanyN,CodeN,Av fake street 123,Description ForN,6015345461,ww.companyB.com,can
CompanyO,CodeO,Av fake street 123,Description ForO,6015345462,ww.companyC.com,usa
CompanyP,CodeP,Av fake street 123,Description ForP,6015345463,ww.companyD.com,usa
CompanyQ,CodeQ,Av fake street 123,Description ForQ,6015345464,ww.companyA.com,usa
CompanyR,CodeR,Av fake street 123,Description ForR,6015345465,ww.companyB.com,usa
CompanyS,CodeS,Av fake street 123,Description ForS,6015345466,ww.companyC.com,col
CompanyT,CodeT,Av fake street 123,Description ForT,6015345467,ww.companyD.com,mex
CompanyU,CodeU,Av fake street 123,Description ForU,6015345468,ww.companyA.com,can
CompanyV,CodeV,Av fake street 123,Description ForV,6015345469,ww.companyB.com,usa
CompanyW,CodeW,Av fake street 123,Description ForW,6015345470,ww.companyC.com,usa
CompanyX,CodeX,Av fake street 123,Description ForX,6015345471,ww.companyD.com,usa
CompanyY,CodeY,Av fake street 123,Description ForY,6015345472,ww.companyA.com,usa
CompanyZ,CodeZ,Av fake street 123,Description ForZ,6015345473,ww.companyB.com,col
CompanyA,CodeA,Av fake street 123,Description ForA,6015345450,ww.companyA.com,usa
CompanyB,CodeB,Av fake street 123,Description ForB,6015345450,ww.companyB.com,usa
CompanyC,CodeC,Av fake street 123,Description ForC,6015345450,ww.companyC.com,usa
CompanyD,CodeD,Av fake street 123,Description ForD,6015345451,ww.companyD.com,usa
CompanyE,CodeE,Av fake street 123,Description ForE,6015345452,ww.companyA.com,col
CompanyF,CodeF,Av fake street 123,Description ForF,6015345453,ww.companyB.com,mex
CompanyG,CodeG,Av fake street 123,Description ForG,6015345454,ww.companyC.com,can
CompanyH,CodeH,Av fake street 123,Description ForH,6015345455,ww.companyD.com,usa
CompanyI,CodeI,Av fake street 123,Description ForI,6015345456,ww.companyA.com,usa
CompanyJ,CodeJ,Av fake street 123,Description ForJ,6015345457,ww.companyB.com,usa
CompanyK,CodeK,Av fake street 123,Description ForK,6015345458,ww.companyC.com,usa
CompanyL,CodeL,Av fake street 123,Description ForL,6015345459,ww.companyD.com,col
CompanyM,CodeM,Av fake street 123,Description ForM,6015345460,ww.companyA.com,mex
CompanyN,CodeN,Av fake street 123,Description ForN,6015345461,ww.companyB.com,can
CompanyO,CodeO,Av fake street 123,Description ForO,6015345462,ww.companyC.com,usa
CompanyP,CodeP,Av fake street 123,Description ForP,6015345463,ww.companyD.com,usa
CompanyQ,CodeQ,Av fake street 123,Description ForQ,6015345464,ww.companyA.com,usa
CompanyR,CodeR,Av fake street 123,Description ForR,6015345465,ww.companyB.com,usa
CompanyS,CodeS,Av fake street 123,Description ForS,6015345466,ww.companyC.com,col
CompanyT,CodeT,Av fake street 123,Description ForT,6015345467,ww.companyD.com,mex
CompanyU,CodeU,Av fake street 123,Description ForU,6015345468,ww.companyA.com,can
CompanyV,CodeV,Av fake street 123,Description ForV,6015345469,ww.companyB.com,usa
CompanyW,CodeW,Av fake street 123,Description ForW,6015345470,ww.companyC.com,usa
CompanyX,CodeX,Av fake street 123,Description ForX,6015345471,ww.companyD.com,usa
CompanyY,CodeY,Av fake street 123,Description ForY,6015345472,ww.companyA.com,usa
CompanyZ,CodeZ,Av fake street 123,Description ForZ,6015345473,ww.companyB.com,col
CompanyA,CodeA,Av fake street 123,Description ForA,6015345450,ww.companyA.com,usa
CompanyB,CodeB,Av fake street 123,Description ForB,6015345450,ww.companyB.com,usa
CompanyC,CodeC,Av fake street 123,Description ForC,6015345450,ww.companyC.com,usa
CompanyD,CodeD,Av fake street 123,Description ForD,6015345451,ww.companyD.com,usa
CompanyE,CodeE,Av fake street 123,Description ForE,6015345452,ww.companyA.com,col
CompanyF,CodeF,Av fake street 123,Description ForF,6015345453,ww.companyB.com,mex
CompanyG,CodeG,Av fake street 123,Description ForG,6015345454,ww.companyC.com,can
CompanyH,CodeH,Av fake street 123,Description ForH,6015345455,ww.companyD.com,usa
CompanyI,CodeI,Av fake street 123,Description ForI,6015345456,ww.companyA.com,usa
CompanyJ,CodeJ,Av fake street 123,Description ForJ,6015345457,ww.companyB.com,usa
CompanyK,CodeK,Av fake street 123,Description ForK,6015345458,ww.companyC.com,usa
CompanyL,CodeL,Av fake street 123,Description ForL,6015345459,ww.companyD.com,col
CompanyM,CodeM,Av fake street 123,Description ForM,6015345460,ww.companyA.com,mex
CompanyN,CodeN,Av fake street 123,Description ForN,6015345461,ww.companyB.com,can
CompanyO,CodeO,Av fake street 123,Description ForO,6015345462,ww.companyC.com,usa
CompanyP,CodeP,Av fake street 123,Description ForP,6015345463,ww.companyD.com,usa
CompanyQ,CodeQ,Av fake street 123,Description ForQ,6015345464,ww.companyA.com,usa
CompanyR,CodeR,Av fake street 123,Description ForR,6015345465,ww.companyB.com,usa
CompanyS,CodeS,Av fake street 123,Description ForS,6015345466,ww.companyC.com,col
CompanyT,CodeT,Av fake street 123,Description ForT,6015345467,ww.companyD.com,mex
CompanyT,CodeT,Av fake street 123,Description ForT,6015345467,ww.companyD.com,mex
CompanyT,CodeT,Av fake street 123,Description ForT,6015345467,ww.companyD.com,mex

